[{"OBJECT_NAME":"STARLINK-1764","OBJECT_ID":"2020-062U","EPOCH":"2026-03-09T21:50:11.933376","MEAN_MOTION":15.66750924,"ECCENTRICITY":4.732e-5,"INCLINATION":53.045,"RA_OF_ASC_NODE":315.9893,"ARG_OF_PERICENTER":302.3182,"MEAN_ANOMALY":57.7787,"EPHEMERIS_TYPE":0,"CLASSIFICATION_TYPE":"U","NORAD_CAT_ID":46343,"ELEMENT_SET_NO":999,"REV_AT_EPOCH":30518,"BSTAR":0.00099332612,"MEAN_MOTION_DOT":0.00107455,"MEAN_MOTION_DDOT":0},{"OBJECT_NAME":"STARLINK-1677","OBJECT_ID":"2020-070AW","EPOCH":"2026-03-10T00:00:02.999808","MEAN_MOTION":15.66056345,"ECCENTRICITY":0.00018366,"INCLINATION":53.0377,"RA_OF_ASC_NODE":122.7785,"ARG_OF_PERICENTER":67.8911,"MEAN_ANOMALY":286.0688,"EPHEMERIS_TYPE":0,"CLASSIFICATION_TYPE":"U","NORAD_CAT_ID":46576,"ELEMENT_SET_NO":999,"REV_AT_EPOCH":593,"BSTAR":0.00053660396,"MEAN_MOTION_DOT":0.00055829,"MEAN_MOTION_DDOT":0}]
